{
  "norad_id": 43445,
  "name": "USA 285",
  "history": [
    {
      "epoch": "2026-03-27T07:18:42.134112Z",
      "apogee_km": 35324.14113482301,
      "perigee_km": 35231.6647261773,
      "latitude_deg": 3.575822968381162,
      "longitude_deg": -77.39430814877001,
      "height_km": 35233.400875430336,
      "semi_major_axis_km": 41656.03993050016,
      "eccentricity": 0.00111,
      "inclination_deg": 6.9197,
      "raan_deg": 67.9203,
      "arg_perigee_deg": 168.3512,
      "mean_anomaly_deg": 340.5897,
      "mean_motion_rev_day": 1.02114118
    },
    {
      "epoch": "2026-04-03T19:32:23.595936Z",
      "apogee_km": 35322.919250405954,
      "perigee_km": 35233.88090179801,
      "latitude_deg": 3.402407188882292,
      "longitude_deg": -28.02975566368531,
      "height_km": 35310.59205064547,
      "semi_major_axis_km": 41656.53707610199,
      "eccentricity": 0.00106872,
      "inclination_deg": 6.9379,
      "raan_deg": 67.832,
      "arg_perigee_deg": 167.7904,
      "mean_anomaly_deg": 221.8459,
      "mean_motion_rev_day": 1.0211229
    },
    {
      "epoch": "2026-04-12T23:07:29.976096Z",
      "apogee_km": 35323.130033007496,
      "perigee_km": 35232.89448248536,
      "latitude_deg": 3.1380852035275546,
      "longitude_deg": 32.99916638614005,
      "height_km": 35233.35250883897,
      "semi_major_axis_km": 41656.14925774643,
      "eccentricity": 0.0010831,
      "inclination_deg": 6.9588,
      "raan_deg": 67.7196,
      "arg_perigee_deg": 167.4865,
      "mean_anomaly_deg": 345.6904,
      "mean_motion_rev_day": 1.02113716
    },
    {
      "epoch": "2026-04-17T00:32:47.743584Z",
      "apogee_km": 35323.42836825283,
      "perigee_km": 35231.90972924761,
      "latitude_deg": -2.992670497634215,
      "longitude_deg": 59.697076587547166,
      "height_km": 35241.53429695415,
      "semi_major_axis_km": 41655.80604875022,
      "eccentricity": 0.00109851,
      "inclination_deg": 6.9694,
      "raan_deg": 67.6704,
      "arg_perigee_deg": 167.609,
      "mean_anomaly_deg": 37.8698,
      "mean_motion_rev_day": 1.02114978
    },
    {
      "epoch": "2026-04-20T23:48:28.042272Z",
      "apogee_km": 35323.72572817046,
      "perigee_km": 35231.60475462965,
      "latitude_deg": -4.910159833835569,
      "longitude_deg": 86.02916833492871,
      "height_km": 35252.57576850231,
      "semi_major_axis_km": 41655.80224140005,
      "eccentricity": 0.00110574,
      "inclination_deg": 6.9802,
      "raan_deg": 67.6242,
      "arg_perigee_deg": 168.241,
      "mean_anomaly_deg": 56.4565,
      "mean_motion_rev_day": 1.02114992
    },
    {
      "epoch": "2026-04-25T18:04:38.735904Z",
      "apogee_km": 35323.236783706794,
      "perigee_km": 35233.02596891106,
      "latitude_deg": 0.5919137659050783,
      "longitude_deg": 117.77908663346538,
      "height_km": 35232.65235952645,
      "semi_major_axis_km": 41656.26837630893,
      "eccentricity": 0.0010828,
      "inclination_deg": 6.9925,
      "raan_deg": 67.5699,
      "arg_perigee_deg": 168.4092,
      "mean_anomaly_deg": 6.6645,
      "mean_motion_rev_day": 1.02113278
    },
    {
      "epoch": "2026-04-25T18:04:38.736768Z",
      "apogee_km": 35323.238449957535,
      "perigee_km": 35233.02430266032,
      "latitude_deg": 0.5919136990409773,
      "longitude_deg": 117.77908357179315,
      "height_km": 35232.650700771526,
      "semi_major_axis_km": 41656.26837630893,
      "eccentricity": 0.00108284,
      "inclination_deg": 6.9925,
      "raan_deg": 67.5699,
      "arg_perigee_deg": 168.4092,
      "mean_anomaly_deg": 6.6645,
      "mean_motion_rev_day": 1.02113278
    },
    {
      "epoch": "2026-05-04T14:44:08.727360Z",
      "apogee_km": 35322.35520683831,
      "perigee_km": 35234.584735949575,
      "latitude_deg": -1.5342304264101703,
      "longitude_deg": 176.38339963828435,
      "height_km": 35238.29833491532,
      "semi_major_axis_km": 41656.60697139394,
      "eccentricity": 0.0010535,
      "inclination_deg": 7.0131,
      "raan_deg": 67.4646,
      "arg_perigee_deg": 167.3532,
      "mean_anomaly_deg": 25.1388,
      "mean_motion_rev_day": 1.02112033
    },
    {
      "epoch": "2026-05-05T14:55:55.392096Z",
      "apogee_km": 35322.30198239773,
      "perigee_km": 35234.490010840855,
      "latitude_deg": -2.7698029922002503,
      "longitude_deg": -176.9821094849128,
      "height_km": 35242.65145134118,
      "semi_major_axis_km": 41656.532996619295,
      "eccentricity": 0.001054,
      "inclination_deg": 7.0152,
      "raan_deg": 67.4525,
      "arg_perigee_deg": 167.1443,
      "mean_anomaly_deg": 35.9773,
      "mean_motion_rev_day": 1.02112305
    },
    {
      "epoch": "2026-05-06T11:59:50.592768Z",
      "apogee_km": 35322.33767990543,
      "perigee_km": 35234.300925155665,
      "latitude_deg": 1.7018491095535722,
      "longitude_deg": -170.98378875972742,
      "height_km": 35233.41410516354,
      "semi_major_axis_km": 41656.456302530554,
      "eccentricity": 0.0010567,
      "inclination_deg": 7.0172,
      "raan_deg": 67.442,
      "arg_perigee_deg": 167.1175,
      "mean_anomaly_deg": 358.676,
      "mean_motion_rev_day": 1.02112587
    },
    {
      "epoch": "2026-05-07T12:18:51.356160Z",
      "apogee_km": 35322.383206988154,
      "perigee_km": 35234.0633918813,
      "latitude_deg": 0.19338034053264475,
      "longitude_deg": -164.33193819034435,
      "height_km": 35234.20007729332,
      "semi_major_axis_km": 41656.36029943473,
      "eccentricity": 0.0010601,
      "inclination_deg": 7.0194,
      "raan_deg": 67.4299,
      "arg_perigee_deg": 167.1147,
      "mean_anomaly_deg": 11.158,
      "mean_motion_rev_day": 1.0211294
    },
    {
      "epoch": "2026-05-08T14:12:40.516704Z",
      "apogee_km": 35322.48558297017,
      "perigee_km": 35233.74942962086,
      "latitude_deg": -4.03414999196535,
      "longitude_deg": -157.32726831326843,
      "height_km": 35248.43331623196,
      "semi_major_axis_km": 41656.25450629552,
      "eccentricity": 0.0010651,
      "inclination_deg": 7.0217,
      "raan_deg": 67.4174,
      "arg_perigee_deg": 167.0519,
      "mean_anomaly_deg": 47.9047,
      "mean_motion_rev_day": 1.02113329
    },
    {
      "epoch": "2026-05-09T11:07:04.952928Z",
      "apogee_km": 35322.63021257772,
      "perigee_km": 35233.44434344849,
      "latitude_deg": 0.5713128965603885,
      "longitude_deg": -151.38905021185508,
      "height_km": 35233.14929254901,
      "semi_major_axis_km": 41656.17427801311,
      "eccentricity": 0.0010705,
      "inclination_deg": 7.0237,
      "raan_deg": 67.407,
      "arg_perigee_deg": 167.1255,
      "mean_anomaly_deg": 8.0776,
      "mean_motion_rev_day": 1.02113624
    },
    {
      "epoch": "2026-05-09T11:07:04.953792Z",
      "apogee_km": 35322.62812976901,
      "perigee_km": 35233.44642625721,
      "latitude_deg": 0.5713129957612811,
      "longitude_deg": -151.38905463028107,
      "height_km": 35233.151362325174,
      "semi_major_axis_km": 41656.17427801311,
      "eccentricity": 0.00107045,
      "inclination_deg": 7.0237,
      "raan_deg": 67.407,
      "arg_perigee_deg": 167.1255,
      "mean_anomaly_deg": 8.0776,
      "mean_motion_rev_day": 1.02113624
    },
    {
      "epoch": "2026-05-11T13:40:24.030912Z",
      "apogee_km": 35322.93466292021,
      "perigee_km": 35232.79940139544,
      "latitude_deg": -5.358709459152906,
      "longitude_deg": -137.57734853221976,
      "height_km": 35257.23377707328,
      "semi_major_axis_km": 41656.00403215783,
      "eccentricity": 0.0010819,
      "inclination_deg": 7.0287,
      "raan_deg": 67.3817,
      "arg_perigee_deg": 167.3842,
      "mean_anomaly_deg": 62.2204,
      "mean_motion_rev_day": 1.0211425
    },
    {
      "epoch": "2026-05-12T12:08:28.991040Z",
      "apogee_km": 35323.09075237614,
      "perigee_km": 35232.5307219955,
      "latitude_deg": -3.9168721964055546,
      "longitude_deg": -131.3743340883149,
      "height_km": 35246.52453660794,
      "semi_major_axis_km": 41655.94773718582,
      "eccentricity": 0.001087,
      "inclination_deg": 7.031,
      "raan_deg": 67.3703,
      "arg_perigee_deg": 167.531,
      "mean_anomaly_deg": 46.2388,
      "mean_motion_rev_day": 1.02114457
    },
    {
      "epoch": "2026-05-13T10:34:06.641760Z",
      "apogee_km": 35323.27041874913,
      "perigee_km": 35232.26892503371,
      "latitude_deg": -2.1060603475106623,
      "longitude_deg": -125.12713269501234,
      "height_km": 35237.90043473361,
      "semi_major_axis_km": 41655.906671891426,
      "eccentricity": 0.0010923,
      "inclination_deg": 7.0335,
      "raan_deg": 67.3592,
      "arg_perigee_deg": 167.6073,
      "mean_anomaly_deg": 29.7009,
      "mean_motion_rev_day": 1.02114608
    }
  ]
}